{
    "links": {
        "self": "http://www.neowsapp.com/rest/v1/neo/3174186?api_key=iIulBulltgU6a56xZRHN4H3l9WmuAYTsLGpBGhQ2"
    },
    "id": "3174186",
    "neo_reference_id": "3174186",
    "name": "(2004 BN41)",
    "designation": "2004 BN41",
    "nasa_jpl_url": "http://ssd.jpl.nasa.gov/sbdb.cgi?sstr=3174186",
    "absolute_magnitude_h": 26.1,
    "estimated_diameter": {
        "kilometers": {
            "estimated_diameter_min": 0.0160160338,
            "estimated_diameter_max": 0.0358129403
        },
        "meters": {
            "estimated_diameter_min": 16.0160337979,
            "estimated_diameter_max": 35.8129403019
        },
        "miles": {
            "estimated_diameter_min": 0.0099518989,
            "estimated_diameter_max": 0.0222531225
        },
        "feet": {
            "estimated_diameter_min": 52.5460443254,
            "estimated_diameter_max": 117.4965270602
        }
    },
    "is_potentially_hazardous_asteroid": false,
    "close_approach_data": [
        {
            "close_approach_date": "2004-01-18",
            "close_approach_date_full": "2004-Jan-18 04:26",
            "epoch_date_close_approach": 1074399960000,
            "relative_velocity": {
                "kilometers_per_second": "6.5797963806",
                "kilometers_per_hour": "23687.2669700834",
                "miles_per_hour": "14718.3465237165"
            },
            "miss_distance": {
                "astronomical": "0.0099247338",
                "lunar": "3.8607214482",
                "kilometers": "1484719.036797006",
                "miles": "922561.6297144428"
            },
            "orbiting_body": "Earth"
        }
    ],
    "orbital_data": {
        "orbit_id": "9",
        "orbit_determination_date": "2017-04-06 09:13:15",
        "first_observation_date": "2004-01-23",
        "last_observation_date": "2004-01-30",
        "data_arc_in_days": 7,
        "observations_used": 21,
        "orbit_uncertainty": "8",
        "minimum_orbit_intersection": ".00992183",
        "jupiter_tisserand_invariant": "3.601",
        "epoch_osculation": "2453030.5",
        "eccentricity": ".5182573500634627",
        "semi_major_axis": "2.061194020752619",
        "inclination": ".3986756347533734",
        "ascending_node_longitude": "331.6388653064097",
        "orbital_period": "1080.878150404408",
        "perihelion_distance": ".9929650695907124",
        "perihelion_argument": "144.9545158972717",
        "aphelion_distance": "3.129422971914525",
        "perihelion_time": "2453022.064016341162",
        "mean_anomaly": "2.809709971512895",
        "mean_motion": ".3330625194572643",
        "equinox": "J2000",
        "orbit_class": {
            "orbit_class_type": "APO",
            "orbit_class_description": "Near-Earth asteroid orbits which cross the Earth’s orbit similar to that of 1862 Apollo",
            "orbit_class_range": "a (semi-major axis) > 1.0 AU; q (perihelion) < 1.017 AU"
        }
    },
    "is_sentry_object": false
}